[{"OBJECT_NAME":"GLOBALSTAR M069","OBJECT_ID":"2007-020C","EPOCH":"2026-03-09T14:43:34.946688","MEAN_MOTION":12.23468691,"ECCENTRICITY":0.0001049,"INCLINATION":52.0028,"RA_OF_ASC_NODE":173.958,"ARG_OF_PERICENTER":301.6272,"MEAN_ANOMALY":166.669,"EPHEMERIS_TYPE":0,"CLASSIFICATION_TYPE":"U","NORAD_CAT_ID":31573,"ELEMENT_SET_NO":999,"REV_AT_EPOCH":86661,"BSTAR":-0.00010503,"MEAN_MOTION_DOT":-1.04e-6,"MEAN_MOTION_DDOT":0},{"OBJECT_NAME":"SL-8 R\/B","OBJECT_ID":"1971-041J","EPOCH":"2026-03-09T23:44:25.343808","MEAN_MOTION":12.32227484,"ECCENTRICITY":0.00670429,"INCLINATION":74.0247,"RA_OF_ASC_NODE":264.2104,"ARG_OF_PERICENTER":286.9956,"MEAN_ANOMALY":183.9309,"EPHEMERIS_TYPE":0,"CLASSIFICATION_TYPE":"U","NORAD_CAT_ID":5218,"ELEMENT_SET_NO":999,"REV_AT_EPOCH":68259,"BSTAR":-0.00038445116,"MEAN_MOTION_DOT":-6.2e-7,"MEAN_MOTION_DDOT":0}]
